[{"OBJECT_NAME":"STARLINK-35019","OBJECT_ID":"2025-198X","EPOCH":"2026-03-09T22:15:22.550976","MEAN_MOTION":15.30209503,"ECCENTRICITY":9.989e-5,"INCLINATION":53.1569,"RA_OF_ASC_NODE":270.0896,"ARG_OF_PERICENTER":204.1444,"MEAN_ANOMALY":155.951,"EPHEMERIS_TYPE":0,"CLASSIFICATION_TYPE":"U","NORAD_CAT_ID":65513,"ELEMENT_SET_NO":999,"REV_AT_EPOCH":2865,"BSTAR":0.00093261601,"MEAN_MOTION_DOT":0.00027372,"MEAN_MOTION_DDOT":0},{"OBJECT_NAME":"ELECTRON KICK STAGE R\/B","OBJECT_ID":"2024-248B","EPOCH":"2026-03-09T20:49:52.700448","MEAN_MOTION":15.26602112,"ECCENTRICITY":0.00382118,"INCLINATION":97.6105,"RA_OF_ASC_NODE":34.9036,"ARG_OF_PERICENTER":284.4829,"MEAN_ANOMALY":75.2171,"EPHEMERIS_TYPE":0,"CLASSIFICATION_TYPE":"U","NORAD_CAT_ID":62407,"ELEMENT_SET_NO":999,"REV_AT_EPOCH":6727,"BSTAR":0.0006831254,"MEAN_MOTION_DOT":0.00018217,"MEAN_MOTION_DDOT":0}]
